     2.100          NAVIGATION                              RINEX VERSION / TYPE
fic2rin                                 02/14/2017 00:13:28 PGM / RUN BY / DATE
                                                            END OF HEADER
 7 17  2 14  0  0  0.0  .382890924811D-03 -.375166564481D-11  .000000000000D+00
     .670000000000D+02 -.408750000000D+02  .479305679291D-08 -.184066110868D+01
    -.228732824326D-05  .101397745311D-01  .528246164322D-05  .515360247803D+04
     .172800000000D+06  .132247805595D-06  .252151533231D+01 -.800937414169D-07
     .963383686283D+00  .276468750000D+03 -.261458778533D+01 -.821641367518D-08
    -.171435712414D-09  .100000000000D+01  .193600000000D+04  .000000000000D+00
     .240000000000D+01  .000000000000D+00 -.111758708954D-07  .670000000000D+02
     .165606000000D+06  .400000000000D+01
 8 17  2 14  0  0  0.0 -.494611449540D-04 -.136424205266D-11  .000000000000D+00
     .590000000000D+02  .673125000000D+02  .460947771753D-08  .158062595864D+01
     .353902578354D-05  .251006300095D-02  .576116144657D-05  .515358593559D+04
     .172800000000D+06  .186264514923D-07 -.169908102049D+01 -.596046447754D-07
     .965542104876D+00  .265312500000D+03 -.868376184702D+00 -.823248577322D-08
     .250724729406D-09  .100000000000D+01  .193600000000D+04  .000000000000D+00
     .240000000000D+01  .000000000000D+00  .465661287308D-08  .590000000000D+02
     .165606000000D+06  .400000000000D+01
 9 17  2 14  0  0  0.0  .303144101053D-03  .750333128963D-11  .000000000000D+00
     .114000000000D+03  .583125000000D+02  .480948604868D-08  .110224446577D+01
     .307150185108D-05  .919305020943D-03  .689178705215D-05  .515369014359D+04
     .172800000000D+06 -.353902578354D-07  .144258196874D+01 -.242143869400D-07
     .953514846772D+00  .240937500000D+03  .175022702988D+01 -.827891627867D-08
     .488234622646D-09  .100000000000D+01  .193600000000D+04  .000000000000D+00
     .340000000000D+01  .000000000000D+00  .139698386192D-08  .114000000000D+03
     .165606000000D+06  .400000000000D+01
10 17  2 14  0  0  0.0 -.105836894363D-03  .375166564481D-11  .000000000000D+00
     .800000000000D+02 -.422812500000D+02  .421446126351D-08  .296150682214D+01
    -.206939876080D-05  .221632095054D-02  .129528343678D-04  .515368331337D+04
     .172800000000D+06  .372529029846D-08  .401701570883D+00 -.372529029846D-07
     .960266101063D+00  .128468750000D+03 -.288699068766D+01 -.782854037584D-08
     .139291516336D-10  .100000000000D+01  .193600000000D+04  .000000000000D+00
     .340000000000D+01  .000000000000D+00  .232830643654D-08  .800000000000D+02
     .165606000000D+06  .400000000000D+01
11 17  2 14  0  0  0.0 -.669831875712D-03 -.181898940355D-11  .000000000000D+00
     .930000000000D+02 -.356250000000D+01  .619275795323D-08 -.182023770437D+01
     .100582838058D-06  .166339842835D-01  .180862843990D-05  .515369573593D+04
     .172800000000D+06  .203028321266D-06 -.103166637803D+01  .391155481339D-06
     .899512799976D+00  .309906250000D+03  .161878616796D+01 -.902180436579D-08
    -.875036448780D-10  .100000000000D+01  .193600000000D+04  .000000000000D+00
     .240000000000D+01  .000000000000D+00 -.121071934700D-07  .930000000000D+02
     .165606000000D+06  .400000000000D+01
12 17  2 14  0  0  0.0  .388143584132D-03 -.341060513165D-12  .000000000000D+00
     .890000000000D+02  .153125000000D+02  .368336771276D-08 -.243937989184D+01
     .804662704468D-06  .642233272083D-02  .124946236610D-04  .515358978462D+04
     .172800000000D+06  .137835741043D-06 -.268029554230D+01 -.968575477600D-07
     .989970393726D+00  .151968750000D+03  .792832512657D+00 -.751817030483D-08
    -.675028117631D-10  .100000000000D+01  .193600000000D+04  .000000000000D+00
     .240000000000D+01  .000000000000D+00 -.121071934700D-07  .890000000000D+02
     .165606000000D+06  .400000000000D+01
13 17  2 14  0  0  0.0 -.696601346135D-04 -.170530256582D-11  .000000000000D+00
     .760000000000D+02  .575625000000D+02  .463340728573D-08 -.802568333415D+00
     .293552875519D-05  .406527705491D-02  .611692667007D-05  .515368349075D+04
     .172800000000D+06 -.279396772385D-07  .156732537956D+01  .409781932831D-07
     .969615129208D+00  .268937500000D+03  .184214399267D+01 -.823391440416D-08
     .466090843126D-09  .100000000000D+01  .193600000000D+04  .000000000000D+00
     .240000000000D+01  .000000000000D+00 -.111758708954D-07  .760000000000D+02
     .165606000000D+06  .400000000000D+01
14 17  2 14  0  0  0.0 -.586863607168D-04 -.170530256582D-11  .000000000000D+00
     .840000000000D+02  .576250000000D+02  .478912805784D-08  .536840795037D+00
     .292249023914D-05  .868282106239D-02  .688992440701D-05  .515362305450D+04
     .172800000000D+06 -.838190317154D-07  .152853728580D+01  .204890966415D-07
     .962139724616D+00  .246500000000D+03 -.195553941044D+01 -.842070789914D-08
     .446804325479D-09  .100000000000D+01  .193600000000D+04  .000000000000D+00
     .240000000000D+01  .000000000000D+00 -.931322574615D-08  .840000000000D+02
     .165606000000D+06  .400000000000D+01
15 17  2 14  0  0  0.0 -.343178864568D-03 -.102318153949D-11  .000000000000D+00
     .650000000000D+02  .697812500000D+02  .544344102688D-08  .769631736422D-01
     .373646616936D-05  .907830311917D-02  .709667801857D-05  .515374461555D+04
     .172800000000D+06  .117346644402D-06  .138348607191D+01  .154599547386D-06
     .929198933437D+00  .225843750000D+03  .571349998244D+00 -.870143387822D-08
     .523236080597D-09  .100000000000D+01  .193600000000D+04  .000000000000D+00
     .240000000000D+01  .000000000000D+00 -.107102096081D-07  .650000000000D+02
     .165606000000D+06  .400000000000D+01
16 17  2 14  0  0  0.0  .262390822172D-04  .113686837722D-11  .000000000000D+00
     .620000000000D+02  .428125000000D+01  .365908098684D-08  .188512241631D+01
     .447034835815D-06  .916382833384D-02  .128783285618D-04  .515365667725D+04
     .172800000000D+06 -.173225998878D-06 -.266147031747D+01  .113621354103D-06
     .990447316723D+00  .149687500000D+03  .396675916241D+00 -.760103089916D-08
    -.176793078427D-09  .100000000000D+01  .193600000000D+04  .000000000000D+00
     .240000000000D+01  .000000000000D+00 -.107102096081D-07  .620000000000D+02
     .165606000000D+06  .400000000000D+01
17 17  2 14  0  0  0.0 -.191245228052D-03  .125055521494D-11  .000000000000D+00
     .540000000000D+02  .661250000000D+02  .435375277985D-08  .843496465665D+00
     .347197055817D-05  .116869814228D-01  .602938234806D-05  .515357885933D+04
     .172800000000D+06 -.188127160072D-06 -.164288740245D+01  .316649675369D-07
     .978719626207D+00  .277062500000D+03 -.186438149001D+01 -.831677499849D-08
     .194293807403D-09  .100000000000D+01  .193600000000D+04  .000000000000D+00
     .340000000000D+01  .000000000000D+00 -.107102096081D-07  .540000000000D+02
     .165606000000D+06  .400000000000D+01
18 17  2 14  0  0  0.0  .598632730544D-03  .250111042988D-11  .000000000000D+00
     .750000000000D+02 -.601875000000D+02  .482234372712D-08  .240071513670D+01
    -.308640301228D-05  .175969668198D-01  .125132501125D-04  .515375106430D+04
     .172800000000D+06  .234693288803D-06  .363277094189D+00 -.180676579475D-06
     .925826067549D+00  .114687500000D+03 -.183201834520D+01 -.787532803902D-08
    -.446447167745D-10  .100000000000D+01  .193600000000D+04  .000000000000D+00
     .240000000000D+01  .000000000000D+00 -.111758708954D-07  .750000000000D+02
     .165606000000D+06  .400000000000D+01
20 17  2 14  0  0  0.0  .459954142570D-03  .170530256582D-11  .000000000000D+00
     .470000000000D+02 -.529062500000D+02  .492449083910D-08  .911309895715D-02
    -.266730785370D-05  .459499715362D-02  .119823962450D-04  .515363951874D+04
     .172800000000D+06 -.122934579849D-06  .311833198110D+00 -.745058059692D-08
     .927178557257D+00  .132437500000D+03  .155162180686D+01 -.825677249915D-08
    -.803604901941D-10  .100000000000D+01  .193600000000D+04  .000000000000D+00
     .240000000000D+01  .000000000000D+00 -.838190317154D-08  .470000000000D+02
     .165606000000D+06  .400000000000D+01
21 17  2 14  0  0  0.0 -.521526671946D-03  .159161572810D-11  .000000000000D+00
     .670000000000D+02 -.752500000000D+02  .516021494367D-08 -.297985298958D+01
    -.394508242607D-05  .238812894095D-01  .324286520481D-05  .515373885727D+04
     .172800000000D+06  .329688191414D-06 -.677299347322D+00 -.111758708954D-07
     .938839467027D+00  .301218750000D+03 -.170993626763D+01 -.825355807954D-08
    -.267153985179D-09  .100000000000D+01  .193600000000D+04  .000000000000D+00
     .240000000000D+01  .000000000000D+00 -.977888703346D-08  .670000000000D+02
     .165606000000D+06  .400000000000D+01
22 17  2 14  0  0  0.0  .102196820080D-03 -.115960574476D-10  .000000000000D+00
     .550000000000D+02 -.448437500000D+02  .509056918550D-08  .379853958762D+00
    -.220723450184D-05  .740131770726D-02  .116098672152D-04  .515359591675D+04
     .172800000000D+06 -.216066837311D-06  .363355487580D+00 -.465661287308D-07
     .923824832190D+00  .139750000000D+03 -.180467142945D+01 -.835677666472D-08
    -.928610108910D-10  .100000000000D+01  .193600000000D+04  .000000000000D+00
     .240000000000D+01  .000000000000D+00 -.176951289177D-07  .550000000000D+02
     .165606000000D+06  .400000000000D+01
23 17  2 14  0  0  0.0 -.205281190574D-03 -.909494701773D-12  .000000000000D+00
     .490000000000D+02  .584062500000D+02  .514450000336D-08 -.333139994287D+00
     .322423875332D-05  .112359432969D-01  .696629285812D-05  .515379368973D+04
     .172800000000D+06  .558793544769D-07  .144535470466D+01  .143423676491D-06
     .944401197758D+00  .236968750000D+03 -.250093111672D+01 -.856892835883D-08
     .475734101949D-09  .100000000000D+01  .193600000000D+04  .000000000000D+00
     .240000000000D+01  .000000000000D+00 -.200234353542D-07  .490000000000D+02
     .165606000000D+06  .400000000000D+01
